{
  "type": "FeatureCollection",
  "features": [
    {
      "type": "Feature",
      "properties": {
        "norad_id": 36036,
        "name": "SMOS",
        "group": "resource",
        "lat": -81.24271368408314,
        "lon": -86.16729700539534,
        "alt_km": 767.4952022053603,
        "timestamp": "2025-12-09T05:43:20.384499+00:00",
        "meta_object_name": "SMOS",
        "meta_object_id": "2009-059A",
        "meta_epoch": "2025-12-08T18:28:30.682848",
        "meta_mean_motion": 14.39736514,
        "meta_eccentricity": 0.000111,
        "meta_inclination": 98.4383,
        "meta_ra_of_asc_node": 167.877,
        "meta_arg_of_pericenter": 84.4692,
        "meta_mean_anomaly": 275.6623,
        "meta_ephemeris_type": 0,
        "meta_classification_type": "U",
        "meta_norad_cat_id": 36036,
        "meta_element_set_no": 999,
        "meta_rev_at_epoch": 84605,
        "meta_bstar": 0.00025909,
        "meta_mean_motion_dot": 7.68e-06,
        "meta_mean_motion_ddot": 0,
        "tle_line1": "1 36036U 09059A   25342.76979957  .00000768  00000+0  25909-3 0  9994",
        "tle_line2": "2 36036  98.4383 167.8770 0001110  84.4692 275.6623 14.39736514846054"
      },
      "geometry": {
        "type": "Point",
        "coordinates": [
          -86.16729700539534,
          -81.24271368408314
        ]
      }
    },
    {
      "type": "Feature",
      "properties": {
        "norad_id": 36110,
        "name": "YAOGAN-7",
        "group": "resource",
        "lat": -25.12169379125328,
        "lon": -131.19672502611675,
        "alt_km": 629.7510274590059,
        "timestamp": "2025-12-09T05:43:20.384509+00:00",
        "meta_object_name": "YAOGAN-7",
        "meta_object_id": "2009-069A",
        "meta_epoch": "2025-12-08T15:12:38.687040",
        "meta_mean_motion": 14.77723918,
        "meta_eccentricity": 0.0023506,
        "meta_inclination": 98.0303,
        "meta_ra_of_asc_node": 224.4054,
        "meta_arg_of_pericenter": 295.2737,
        "meta_mean_anomaly": 64.6037,
        "meta_ephemeris_type": 0,
        "meta_classification_type": "U",
        "meta_norad_cat_id": 36110,
        "meta_element_set_no": 999,
        "meta_rev_at_epoch": 86148,
        "meta_bstar": 0.00019724,
        "meta_mean_motion_dot": 1.367e-05,
        "meta_mean_motion_ddot": 0,
        "tle_line1": "1 36110U 09069A   25342.63378110  .00001367  00000+0  19724-3 0  9992",
        "tle_line2": "2 36110  98.0303 224.4054 0023506 295.2737  64.6037 14.77723918861480"
      },
      "geometry": {
        "type": "Point",
        "coordinates": [
          -131.19672502611675,
          -25.12169379125328
        ]
      }
    },
    {
      "type": "Feature",
      "properties": {
        "norad_id": 36605,
        "name": "TANDEM-X",
        "group": "resource",
        "lat": 58.21688999888034,
        "lon": -23.51311639058586,
        "alt_km": 501.5321586253667,
        "timestamp": "2025-12-09T05:43:20.384520+00:00",
        "meta_object_name": "TANDEM-X",
        "meta_object_id": "2010-030A",
        "meta_epoch": "2025-12-08T13:39:18.929376",
        "meta_mean_motion": 15.19159019,
        "meta_eccentricity": 0.0002067,
        "meta_inclination": 97.4453,
        "meta_ra_of_asc_node": 348.0112,
        "meta_arg_of_pericenter": 89.3333,
        "meta_mean_anomaly": 270.8138,
        "meta_ephemeris_type": 0,
        "meta_classification_type": "U",
        "meta_norad_cat_id": 36605,
        "meta_element_set_no": 999,
        "meta_rev_at_epoch": 85770,
        "meta_bstar": 0.00014235,
        "meta_mean_motion_dot": 2.924e-05,
        "meta_mean_motion_ddot": 0,
        "tle_line1": "1 36605U 10030A   25342.56896909  .00002924  00000+0  14235-3 0  9996",
        "tle_line2": "2 36605  97.4453 348.0112 0002067  89.3333 270.8138 15.19159019857704"
      },
      "geometry": {
        "type": "Point",
        "coordinates": [
          -23.51311639058586,
          58.21688999888034
        ]
      }
    },
    {
      "type": "Feature",
      "properties": {
        "norad_id": 36795,
        "name": "CARTOSAT-2B",
        "group": "resource",
        "lat": -67.79496607894552,
        "lon": -167.20021400734367,
        "alt_km": 649.0510550720064,
        "timestamp": "2025-12-09T05:43:20.384530+00:00",
        "meta_object_name": "CARTOSAT-2B",
        "meta_object_id": "2010-035A",
        "meta_epoch": "2025-12-08T20:28:49.292256",
        "meta_mean_motion": 14.78781209,
        "meta_eccentricity": 0.0012948,
        "meta_inclination": 97.7853,
        "meta_ra_of_asc_node": 32.0099,
        "meta_arg_of_pericenter": 88.7321,
        "meta_mean_anomaly": 271.5374,
        "meta_ephemeris_type": 0,
        "meta_classification_type": "U",
        "meta_norad_cat_id": 36795,
        "meta_element_set_no": 999,
        "meta_rev_at_epoch": 83172,
        "meta_bstar": 0.00018238,
        "meta_mean_motion_dot": 1.292e-05,
        "meta_mean_motion_ddot": 0,
        "tle_line1": "1 36795U 10035A   25342.85334829  .00001292  00000+0  18238-3 0  9995",
        "tle_line2": "2 36795  97.7853  32.0099 0012948  88.7321 271.5374 14.78781209831724"
      },
      "geometry": {
        "type": "Point",
        "coordinates": [
          -167.20021400734367,
          -67.79496607894552
        ]
      }
    },
    {
      "type": "Feature",
      "properties": {
        "norad_id": 36834,
        "name": "YAOGAN-10",
        "group": "resource",
        "lat": -73.73745876675127,
        "lon": 154.6044112407113,
        "alt_km": 623.2359590622009,
        "timestamp": "2025-12-09T05:43:20.384541+00:00",
        "meta_object_name": "YAOGAN-10",
        "meta_object_id": "2010-038A",
        "meta_epoch": "2025-12-08T21:02:13.054272",
        "meta_mean_motion": 14.84580268,
        "meta_eccentricity": 0.0001458,
        "meta_inclination": 97.914,
        "meta_ra_of_asc_node": 2.7256,
        "meta_arg_of_pericenter": 79.2622,
        "meta_mean_anomaly": 43.517,
        "meta_ephemeris_type": 0,
        "meta_classification_type": "U",
        "meta_norad_cat_id": 36834,
        "meta_element_set_no": 999,
        "meta_rev_at_epoch": 82896,
        "meta_bstar": 0.00010948,
        "meta_mean_motion_dot": 8.7e-06,
        "meta_mean_motion_ddot": 0,
        "tle_line1": "1 36834U 10038A   25342.87653998  .00000870  00000+0  10948-3 0  9996",
        "tle_line2": "2 36834  97.9140   2.7256 0001458  79.2622  43.5170 14.84580268828963"
      },
      "geometry": {
        "type": "Point",
        "coordinates": [
          154.6044112407113,
          -73.73745876675127
        ]
      }
    },
    {
      "type": "Feature",
      "properties": {
        "norad_id": 37216,
        "name": "COSMO-SKYMED 4",
        "group": "resource",
        "lat": -29.331154412336303,
        "lon": -19.84960781003596,
        "alt_km": 629.1015868529475,
        "timestamp": "2025-12-09T05:43:20.384551+00:00",
        "meta_object_name": "COSMO-SKYMED 4",
        "meta_object_id": "2010-060A",
        "meta_epoch": "2025-12-08T19:03:30.623616",
        "meta_mean_motion": 14.82161304,
        "meta_eccentricity": 0.0001396,
        "meta_inclination": 97.8802,
        "meta_ra_of_asc_node": 164.1764,
        "meta_arg_of_pericenter": 78.7063,
        "meta_mean_anomaly": 281.4306,
        "meta_ephemeris_type": 0,
        "meta_classification_type": "U",
        "meta_norad_cat_id": 37216,
        "meta_element_set_no": 999,
        "meta_rev_at_epoch": 81636,
        "meta_bstar": 0.00014966,
        "meta_mean_motion_dot": 1.14e-05,
        "meta_mean_motion_ddot": 0,
        "tle_line1": "1 37216U 10060A   25342.79410444  .00001140  00000+0  14966-3 0  9999",
        "tle_line2": "2 37216  97.8802 164.1764 0001396  78.7063 281.4306 14.82161304816362"
      },
      "geometry": {
        "type": "Point",
        "coordinates": [
          -19.84960781003596,
          -29.331154412336303
        ]
      }
    },
    {
      "type": "Feature",
      "properties": {
        "norad_id": 37387,
        "name": "RESOURCESAT-2",
        "group": "resource",
        "lat": -36.22173926539924,
        "lon": -139.70029216653307,
        "alt_km": 830.8297455183338,
        "timestamp": "2025-12-09T05:43:20.384562+00:00",
        "meta_object_name": "RESOURCESAT-2",
        "meta_object_id": "2011-015A",
        "meta_epoch": "2025-12-08T18:34:17.927040",
        "meta_mean_motion": 14.21595083,
        "meta_eccentricity": 0.000661,
        "meta_inclination": 98.7882,
        "meta_ra_of_asc_node": 46.3434,
        "meta_arg_of_pericenter": 52.9033,
        "meta_mean_anomaly": 307.2747,
        "meta_ephemeris_type": 0,
        "meta_classification_type": "U",
        "meta_norad_cat_id": 37387,
        "meta_element_set_no": 999,
        "meta_rev_at_epoch": 75912,
        "meta_bstar": 0.00016346,
        "meta_mean_motion_dot": 3.14e-06,
        "meta_mean_motion_ddot": 0,
        "tle_line1": "1 37387U 11015A   25342.77381860  .00000314  00000+0  16346-3 0  9992",
        "tle_line2": "2 37387  98.7882  46.3434 0006610  52.9033 307.2747 14.21595083759123"
      },
      "geometry": {
        "type": "Point",
        "coordinates": [
          -139.70029216653307,
          -36.22173926539924
        ]
      }
    }
  ]
}